STARLINK-1007           
1 44713U 19074A   23327.36180938 -.00002191  00000+0 -12832-3 0  9998
2 44713  53.0545 345.5297 0001500  95.3560 264.7600 15.06383551222549
STARLINK-1008           
1 44714U 19074B   23327.27428473 -.00000715  00000+0 -29148-4 0  9997
2 44714  53.0555 345.9236 0001388 102.5459 257.5685 15.06394412222530
STARLINK-1009           
1 44715U 19074C   23327.46227096 -.00000340  00000+0 -39604-5 0  9990
2 44715  53.0549 345.0831 0001390  86.5546 273.5602 15.06393860222552
STARLINK-1010           
1 44716U 19074D   23327.48069761  .00000124  00000+0  27192-4 0  9992
2 44716  53.0547 344.9983 0001487  90.7164 269.3995 15.06397827222541
STARLINK-1011           
1 44717U 19074E   23327.41251099  .00001055  00000+0  89719-4 0  9990
2 44717  53.0554   5.3026 0001440  93.1474 266.9679 15.06397746222278
STARLINK-1012           
1 44718U 19074F   23327.45121304 -.00000623  00000+0 -22966-4 0  9993
2 44718  53.0544 345.1318 0001459  99.9718 260.1436 15.06393934222555
STARLINK-1013           
1 44719U 19074G   23327.32589312  .00000130  00000+0  27607-4 0  9995
2 44719  53.0545 345.6955 0001447  84.1913 275.9241 15.06394716223669
STARLINK-1014           
1 44720U 19074H   23327.27702637  .00001172  00000+0  97558-4 0  9997
2 44720  53.0553 345.9034 0001492  92.9439 267.1721 15.06398191222533
STARLINK-1015           
1 44721U 19074J   23327.33326913 -.00001075  00000+0 -53283-4 0  9995
2 44721  53.0554 345.6594 0001419  91.8193 268.2959 15.06390655222539
STARLINK-1017           
1 44723U 19074L   23327.35169482  .00000365  00000+0  43408-4 0  9992
2 44723  53.0554 345.5764 0001463  87.0382 273.0775 15.06394059222548
STARLINK-1019           
1 44724U 19074M   23327.38118183 -.00000114  00000+0  11256-4 0  9997
2 44724  53.0546 345.4458 0001461  89.1324 270.9832 15.06393715222544
STARLINK-1020           
1 44725U 19074N   23327.51940067 -.00001535  00000+0 -84177-4 0  9998
2 44725  53.0561   4.8246 0001275  91.1954 268.9181 15.06392808222454
STARLINK-1021           
1 44726U 19074P   23327.44384767 -.00001585  00000+0 -87596-4 0  9993
2 44726  53.0542 345.1643 0001448  81.9387 278.1766 15.06373432222550
STARLINK-1024           
1 44729U 19074S   23327.93322424  .00058580  00000+0  70555-3 0  9993
2 44729  53.0148 248.4108 0003527  18.2417 341.8721 15.60258456223900
STARLINK-1027           
1 44732U 19074V   23327.37564736 -.00001931  00000+0 -11082-3 0  9999
2 44732  53.0562   5.4738 0001998  93.0204 267.1014 15.06388505222261
STARLINK-1028           
1 44733U 19074W   23327.37381016 -.00002378  00000+0 -14081-3 0  9996
2 44733  53.0544 345.4736 0001437  89.3822 270.7332 15.06388529222549
STARLINK-1029           
1 44734U 19074X   23327.25585636  .00003759  00000+0  27106-3 0  9992
2 44734  53.0543 266.0040 0001773 103.0959 257.0228 15.06403919223626
STARLINK-1030           
1 44735U 19074Y   23327.38301634 -.00000813  00000+0 -35721-4 0  9994
2 44735  53.0556   5.4333 0001311 116.3114 243.8010 15.06397904222435
STARLINK-1031           
1 44736U 19074Z   23327.53046285  .00002049  00000+0  15648-3 0  9996
2 44736  53.0552   4.7770 0001970  62.4583 297.6606 15.06389674222467
STARLINK-1032           
1 44737U 19074AA  23327.34247410  .00000805  00000+0  72964-4 0  9992
2 44737  53.0555   5.6183 0001402  91.0279 269.0870 15.06398835222431
STARLINK-1035           
1 44740U 19074AD  23327.33878446  .00001113  00000+0  93631-4 0  9991
2 44740  53.0558   5.6358 0001506 104.9819 255.1337 15.06397413222267
STARLINK-1036           
1 44741U 19074AE  23327.41620450 -.00039955  00000+0 -26844-2 0  9998
2 44741  53.0556   5.2854 0002008 112.0614 248.0588 15.06317613222278
STARLINK-1038           
1 44743U 19074AG  23327.53229882  .00007468  00000+0  51998-3 0  9998
2 44743  53.0554  24.7636 0001618  95.5131 264.6043 15.06381509222182
STARLINK-1039           
1 44744U 19074AH  23327.54335921  .00003018  00000+0  22143-3 0  9999
2 44744  53.0548  24.7140 0001006 108.7449 251.3649 15.06395231222010
STARLINK-1041           
1 44746U 19074AK  23327.39591449  .00007149  00000+0  49827-3 0  9990
2 44746  53.0559  25.3779 0001478 117.6158 242.4981 15.06405547221996
STARLINK-1042           
1 44747U 19074AL  23327.55809940 -.00001576  00000+0 -86985-4 0  9994
2 44747  53.0547  24.6496 0001300 106.7062 253.4070 15.06389644222024
STARLINK-1043           
1 44748U 19074AM  23327.58758829  .00006073  00000+0  42634-3 0  9994
2 44748  53.0552  24.5193 0001216  64.3258 295.7856 15.06392860222199
STARLINK-1046           
1 44751U 19074AQ  23327.53598514 -.00004446  00000+0 -27987-3 0  9994
2 44751  53.0545  24.7449 0001225  90.9725 269.1404 15.06386265222180
STARLINK-1047           
1 44752U 19074AR  23327.42356495 -.00003440  00000+0 -21215-3 0  9994
2 44752  53.0546   5.2541 0001461  85.8817 274.2339 15.06394940222279
STARLINK-1048           
1 44753U 19074AS  23327.36277363  .00010895  00000+0  74907-3 0  9990
2 44753  53.0548 345.5275 0001307  96.3708 263.7430 15.06406316222547
STARLINK-1052           
1 44757U 19074AW  23327.49392392  .00021284  00000+0  12777-2 0  9998
2 44757  53.0558   3.4815 0001822 348.6656  11.4294 15.10882862222308
STARLINK-1053           
1 44758U 19074AX  23327.58391164  .00020103  00000+0  13654-2 0  9999
2 44758  53.0556  24.6209 0001301  87.0462 273.0676 15.06378584222025
STARLINK-1054           
1 44759U 19074AY  23327.43278585  .00007970  00000+0  55356-3 0  9998
2 44759  53.0548  25.2109 0001401 109.7175 250.3966 15.06386374219647
STARLINK-1055           
1 44760U 19074AZ  23327.49159927  .00011930  00000+0  52733-3 0  9991
2 44760  53.0405   3.3658 0001666   5.0159 355.0853 15.22126472222326
STARLINK-1056           
1 44761U 19074BA  23327.56178776  .00005646  00000+0  39773-3 0  9999
2 44761  53.0549  24.6336 0001543  66.8519 293.2632 15.06387050222190
STARLINK-1057           
1 44762U 19074BB  23327.49728280  .00002978  00000+0  21878-3 0  9995
2 44762  53.0554   4.9227 0001568  89.8301 270.2868 15.06392170222283
STARLINK-1058           
1 44763U 19074BC  23327.55076863  .00012933  00000+0  88597-3 0  9999
2 44763  53.0541  25.0281 0001007  93.3085 266.8019 15.06380284222014
STARLINK-1059           
1 44764U 19074BD  23327.27956233  .00015926  00000+0  61924-3 0  9997
2 44764  53.0830 329.2617 0003542 271.7041  88.3551 15.26208006222783
STARLINK-1060           
1 44765U 19074BE  23327.37933458  .00001273  00000+0  10435-3 0  9994
2 44765  53.0555   5.4537 0001411  81.3762 278.7387 15.06399246222260
STARLINK-1061           
1 44766U 19074BF  23327.44383598 -.00003412  00000+0 -21030-3 0  9999
2 44766  53.0550  25.1618 0001500  89.4445 270.6716 15.06389912222009
STARLINK-1062           
1 44767U 19074BG  23327.56821341  .00003234  00000+0  23598-3 0  9997
2 44767  53.0547  24.5917 0001367  73.5815 286.5324 15.06389476222193
STARLINK-1063           
1 44768U 19074BH  23327.45858024  .00004354  00000+0  31102-3 0  9998
2 44768  53.0561  25.0966 0001186  80.5287 279.5836 15.06397671222017
STARLINK-1067           
1 44771U 19074BL  23327.38117997 -.00002682  00000+0 -16126-3 0  9994
2 44771  53.0548  25.4473 0001433  73.1404 286.9742 15.06387416221997
STARLINK-1068           
1 44772U 19074BM  23327.50465437  .00005663  00000+0  39882-3 0  9998
2 44772  53.0555   4.8892 0001547  96.8723 263.2442 15.06396687222282
STARLINK-1073           
1 44914U 20001A   23327.91933377 -.00000293  00000+0 -74598-6 0  9998
2 44914  53.0543 143.0273 0001461 101.5388 258.5765 15.06394261213722
STARLINK-1084           
1 44915U 20001B   23327.81613739 -.00000260  00000+0  14522-5 0  9998
2 44915  53.0538 143.4903 0001427  89.0478 271.0675 15.06384531213711
STARLINK-1098           
1 44917U 20001D   23327.88616616 -.00000351  00000+0 -46377-5 0  9999
2 44917  53.0555 143.1769 0001652  78.4547 281.6628 15.06387982213727
STARLINK-1099           
1 44918U 20001E   23327.79797333  .00029616  00000+0  64012-3 0  9993
2 44918  53.0560 138.3012 0001096 359.7115   0.3890 15.44281829214520
STARLINK-1102           
1 44920U 20001G   23327.72964151  .00013852  00000+0  55616-3 0  9998
2 44920  53.0530 115.4545 0003648  79.7193 280.4215 15.25249179214104
STARLINK-1103           
1 44921U 20001H   23327.73040210  .00000092  00000+0  25109-4 0  9998
2 44921  53.0544 143.8286 0001616  96.3945 263.7228 15.06391539213676
STARLINK-1104           
1 44922U 20001J   23327.90090473  .00000206  00000+0  32713-4 0  9990
2 44922  53.0544 143.1115 0001504  87.2331 272.8830 15.06394191213728
STARLINK-1106           
1 44923U 20001K   23327.73589563  .00012717  00000+0  57455-3 0  9994
2 44923  53.0595 125.1327 0000540 134.7606 225.3434 15.21314886213961
STARLINK-1111           
1 44924U 20001L   23327.91565738 -.00000528  00000+0 -16543-4 0  9996
2 44924  53.0556 143.0647 0001474  86.3518 273.7640 15.06388666213724
STARLINK-1112           
1 44925U 20001M   23327.73135497  .00001970  00000+0  15117-3 0  9997
2 44925  53.0546 143.8727 0001360  90.6282 269.4863 15.06381190213691
STARLINK-1113           
1 44926U 20001N   23327.86037160 -.00000192  00000+0  59801-5 0  9996
2 44926  53.0552 143.3803 0001667  95.5038 264.6142 15.06393185214406
STARLINK-1114           
1 44927U 20001P   23327.80875838  .00000079  00000+0  24192-4 0  9990
2 44927  53.0546 143.5244 0001201 100.5728 259.5397 15.06391502213717
STARLINK-1119           
1 44928U 20001Q   23327.89407766  .00000753  00000+0  35845-4 0  9997
2 44928  53.0538 137.7637 0001183  96.6253 263.4882 15.31873768213807
STARLINK-1121           
1 44929U 20001R   23327.88060070  .00028169  00000+0  17545-3 0  9997
2 44929  53.0488 133.5005 0000938 110.9025 249.2095 15.76736833213852
STARLINK-1123           
1 44930U 20001S   23327.75715664  .00000030  00000+0  20916-4 0  9995
2 44930  53.0546 143.7577 0001569  78.8340 281.2825 15.06391373213709
STARLINK-1128           
